[
  {
    "_id": {
      "$oid": "54d4fe465b12230c694c4fff"
    },
    "postal_code": 1,
    "name": "Alava",
    "slug": "alava",
    "active": false
  },
  {
    "_id": {
      "$oid": "54d4fe465b12230c694c5000"
    },
    "postal_code": 2,
    "name": "Albacete",
    "slug": "albacete",
    "active": false
  },
  {
    "_id": {
      "$oid": "54d4fe465b12230c694c5001"
    },
    "postal_code": 3,
    "name": "Alicante",
    "slug": "alicante",
    "active": false
  },
  {
    "_id": {
      "$oid": "54d4fe465b12230c694c5002"
    },
    "postal_code": 4,
    "name": "Almería",
    "slug": "almeria",
    "active": false
  },
  {
    "_id": {
      "$oid": "54d4fe465b12230c694c5003"
    },
    "postal_code": 5,
    "name": "Avila",
    "slug": "avila",
    "active": false
  },
  {
    "_id": {
      "$oid": "54d4fe465b12230c694c5004"
    },
    "postal_code": 6,
    "name": "Badajoz",
    "slug": "badajoz",
    "active": false
  },
  {
    "_id": {
      "$oid": "54d4fe465b12230c694c5005"
    },
    "postal_code": 7,
    "name": "Balears (Illes)",
    "slug": "baleares",
    "active": false
  },
  {
    "_id": {
      "$oid": "54d4fe465b12230c694c5006"
    },
    "postal_code": 8,
    "name": "Barcelona",
    "slug": "barcelona",
    "active": false
  },
  {
    "_id": {
      "$oid": "54d4fe465b12230c694c5007"
    },
    "postal_code": 9,
    "name": "Burgos",
    "slug": "burgos",
    "active": false
  },
  {
    "_id": {
      "$oid": "54d4fe465b12230c694c5008"
    },
    "postal_code": 10,
    "name": "Cáceres",
    "slug": "caceres",
    "active": false
  },
  {
    "_id": {
      "$oid": "54d4fe465b12230c694c5009"
    },
    "postal_code": 11,
    "name": "Cádiz",
    "slug": "cadiz",
    "active": false
  },
  {
    "_id": {
      "$oid": "54d4fe465b12230c694c500a"
    },
    "postal_code": 12,
    "name": "Castellón",
    "slug": "castellon",
    "active": false
  },
  {
    "_id": {
      "$oid": "54d4fe465b12230c694c500b"
    },
    "postal_code": 13,
    "name": "Ciudad Real",
    "slug": "ciudad-real",
    "active": false
  },
  {
    "_id": {
      "$oid": "54d4fe465b12230c694c500c"
    },
    "postal_code": 14,
    "name": "Córdoba",
    "slug": "cordoba",
    "active": true
  },
  {
    "_id": {
      "$oid": "54d4fe465b12230c694c500d"
    },
    "postal_code": 15,
    "name": "Coruña (A)",
    "slug": "acoruna",
    "active": false
  },
  {
    "_id": {
      "$oid": "54d4fe465b12230c694c500e"
    },
    "postal_code": 16,
    "name": "Cuenca",
    "slug": "cuenca",
    "active": false
  },
  {
    "_id": {
      "$oid": "54d4fe465b12230c694c500f"
    },
    "postal_code": 17,
    "name": "Girona",
    "slug": "girona",
    "active": false
  },
  {
    "_id": {
      "$oid": "54d4fe465b12230c694c5010"
    },
    "postal_code": 18,
    "name": "Granada",
    "slug": "granada",
    "active": false
  },
  {
    "_id": {
      "$oid": "54d4fe465b12230c694c5011"
    },
    "postal_code": 19,
    "name": "Guadalajara",
    "slug": "guadalajara",
    "active": false
  },
  {
    "_id": {
      "$oid": "54d4fe465b12230c694c5012"
    },
    "postal_code": 20,
    "name": "Guipúzcoa",
    "slug": "guipuzcua",
    "active": false
  },
  {
    "_id": {
      "$oid": "54d4fe465b12230c694c5013"
    },
    "postal_code": 21,
    "name": "Huelva",
    "slug": "huelva",
    "active": false
  },
  {
    "_id": {
      "$oid": "54d4fe465b12230c694c5014"
    },
    "postal_code": 22,
    "name": "Huesca",
    "slug": "huesca",
    "active": false
  },
  {
    "_id": {
      "$oid": "54d4fe465b12230c694c5015"
    },
    "postal_code": 23,
    "name": "Jaén",
    "slug": "jaen",
    "active": false
  },
  {
    "_id": {
      "$oid": "54d4fe465b12230c694c5016"
    },
    "postal_code": 24,
    "name": "León",
    "slug": "leon",
    "active": false
  },
  {
    "_id": {
      "$oid": "54d4fe465b12230c694c5017"
    },
    "postal_code": 25,
    "name": "Lleida",
    "slug": "lleida",
    "active": false
  },
  {
    "_id": {
      "$oid": "54d4fe465b12230c694c5018"
    },
    "postal_code": 26,
    "name": "Rioja (La)",
    "slug": "La-rioja",
    "active": false
  },
  {
    "_id": {
      "$oid": "54d4fe465b12230c694c5019"
    },
    "postal_code": 27,
    "name": "Lugo",
    "slug": "lugo",
    "active": false
  },
  {
    "_id": {
      "$oid": "54d4fe465b12230c694c501a"
    },
    "postal_code": 28,
    "name": "Madrid",
    "slug": "madrid",
    "active": false
  },
  {
    "_id": {
      "$oid": "54d4fe465b12230c694c501b"
    },
    "postal_code": 29,
    "name": "Málaga",
    "slug": "malaga",
    "active": false
  },
  {
    "_id": {
      "$oid": "54d4fe465b12230c694c501c"
    },
    "postal_code": 30,
    "name": "Murcia",
    "slug": "murcia",
    "active": false
  },
  {
    "_id": {
      "$oid": "54d4fe465b12230c694c501d"
    },
    "postal_code": 31,
    "name": "Navarra",
    "slug": "navarra",
    "active": false
  },
  {
    "_id": {
      "$oid": "54d4fe465b12230c694c501e"
    },
    "postal_code": 32,
    "name": "Ourense",
    "slug": "ourense",
    "active": false
  },
  {
    "_id": {
      "$oid": "54d4fe465b12230c694c501f"
    },
    "postal_code": 33,
    "name": "Asturias",
    "slug": "asturias",
    "active": false
  },
  {
    "_id": {
      "$oid": "54d4fe465b12230c694c5020"
    },
    "postal_code": 34,
    "name": "Palencia",
    "slug": "palencia",
    "active": false
  },
  {
    "_id": {
      "$oid": "54d4fe465b12230c694c5021"
    },
    "postal_code": 35,
    "name": "Palmas (Las)",
    "slug": "Las-palmas",
    "active": false
  },
  {
    "_id": {
      "$oid": "54d4fe465b12230c694c5022"
    },
    "postal_code": 36,
    "name": "Pontevedra",
    "slug": "pontevedra",
    "active": false
  },
  {
    "_id": {
      "$oid": "54d4fe465b12230c694c5023"
    },
    "postal_code": 37,
    "name": "Salamanca",
    "slug": "salamanca",
    "active": false
  },
  {
    "_id": {
      "$oid": "54d4fe465b12230c694c5024"
    },
    "postal_code": 38,
    "name": "Santa Cruz de Tenerife",
    "slug": "tenerife",
    "active": false
  },
  {
    "_id": {
      "$oid": "54d4fe465b12230c694c5025"
    },
    "postal_code": 39,
    "name": "Cantabria",
    "slug": "cantabria",
    "active": false
  },
  {
    "_id": {
      "$oid": "54d4fe465b12230c694c5026"
    },
    "postal_code": 40,
    "name": "Segovia",
    "slug": "segovia",
    "active": false
  },
  {
    "_id": {
      "$oid": "54d4fe465b12230c694c5027"
    },
    "postal_code": 41,
    "name": "Sevilla",
    "slug": "sevilla",
    "active": false
  },
  {
    "_id": {
      "$oid": "54d4fe465b12230c694c5028"
    },
    "postal_code": 42,
    "name": "Soria",
    "slug": "soria",
    "active": false
  },
  {
    "_id": {
      "$oid": "54d4fe465b12230c694c5029"
    },
    "postal_code": 43,
    "name": "Tarragona",
    "slug": "tarragona",
    "active": false
  },
  {
    "_id": {
      "$oid": "54d4fe465b12230c694c502a"
    },
    "postal_code": 44,
    "name": "Teruel",
    "slug": "teruel",
    "active": false
  },
  {
    "_id": {
      "$oid": "54d4fe465b12230c694c502b"
    },
    "postal_code": 45,
    "name": "Toledo",
    "slug": "toledo",
    "active": false
  },
  {
    "_id": {
      "$oid": "54d4fe465b12230c694c502c"
    },
    "postal_code": 46,
    "name": "Valencia",
    "slug": "valencia",
    "active": false
  },
  {
    "_id": {
      "$oid": "54d4fe465b12230c694c502d"
    },
    "postal_code": 47,
    "name": "Valladolid",
    "slug": "valladolid",
    "active": false
  },
  {
    "_id": {
      "$oid": "54d4fe465b12230c694c502e"
    },
    "postal_code": 48,
    "name": "Vizcaya",
    "slug": "vizcaya",
    "active": false
  },
  {
    "_id": {
      "$oid": "54d4fe465b12230c694c502f"
    },
    "postal_code": 49,
    "name": "Zamora",
    "slug": "zamora",
    "active": false
  },
  {
    "_id": {
      "$oid": "54d4fe465b12230c694c5030"
    },
    "postal_code": 50,
    "name": "Zaragoza",
    "slug": "zaragoza",
    "active": false
  },
  {
    "_id": {
      "$oid": "54d4fe485b12230c694c5031"
    },
    "postal_code": 51,
    "name": "Ceuta",
    "slug": "ceuta",
    "active": false
  },
  {
    "_id": {
      "$oid": "54d4fe485b12230c694c5032"
    },
    "postal_code": 52,
    "name": "Melilla",
    "slug": "melilla",
    "active": false
  }
]